49739,STARLINK-3155,2021,95.44,260.0,+,53.22,Active,1,LEO,USA,USA,Commercial,Communications,Falcon,1 49739U 21115R   25285.28173641  .00001426  00000+0  10768-3 0  9993,2 49739  53.2154 105.3484 0001233  87.7326 272.3807 15.08841514212989,15.08841514,0.0001233,LEO
49740,STARLINK-3226,2021,95.44,260.0,+,53.22,Active,1,LEO,USA,USA,Commercial,Communications,Falcon,1 49740U 21115S   25285.17688474 -.00000285  00000+0  16805-6 0  9992,2 49740  53.2163  95.7917 0001444  85.5600 274.5557 15.08832676213110,15.08832676,0.0001444,LEO
49741,STARLINK-3244,2021,95.44,260.0,+,53.22,Active,1,LEO,USA,USA,Commercial,Communications,Falcon,1 49741U 21115T   25285.17320846 -.00000696  00000+0 -25610-4 0  9998,2 49741  53.2153  95.8466 0001697  75.5091 284.6089 15.08830374213118,15.08830374,0.0001697,LEO
49742,STARLINK-3202,2021,95.43,260.0,+,53.22,Active,1,LEO,USA,USA,Commercial,Communications,Falcon,1 49742U 21115U   25285.25320839  .00000472  00000+0  47750-4 0  9999,2 49742  53.2159  95.4778 0001310  86.1699 273.9443 15.08838860213125,15.0883886,0.000131,LEO
49743,STARLINK-3239,2021,95.44,260.0,+,53.22,Active,1,LEO,USA,USA,Commercial,Communications,Falcon,1 49743U 21115V   25285.16948685  .00003113  00000+0  21347-3 0  9993,2 49743  53.2158  95.7863 0001360  89.2330 270.8818 15.08861006213113,15.08861006,0.000136,LEO
49744,STARLINK-3231,2021,95.44,260.0,+,53.22,Active,1,LEO,USA,USA,Commercial,Communications,Falcon,1 49744U 21115W   25285.25047244  .00000633  00000+0  57849-4 0  9996,2 49744  53.2152  95.3843 0001432  93.4804 266.6352 15.08839704213122,15.08839704,0.0001432,LEO
49745,STARLINK-3241,2021,95.44,260.0,+,53.22,Active,1,LEO,USA,USA,Commercial,Communications,Falcon,1 49745U 21115X   25285.24681796  .00006911  00000+0  45177-3 0  9997,2 49745  53.2151  95.4774 0001308  95.5398 264.5744 15.08849577213120,15.08849577,0.0001308,LEO
49746,STARLINK-3233,2021,95.44,260.0,+,53.21,Active,1,LEO,USA,USA,Commercial,Communications,Falcon,1 49746U 21115Y   25285.20168922 -.00000155  00000+0  83718-5 0  9995,2 49746  53.2112  95.7094 0001215  93.2714 266.8417 15.08843203213111,15.08843203,0.0001215,LEO
49747,STARLINK-3247,2021,95.44,260.0,+,53.22,Active,1,LEO,USA,USA,Commercial,Communications,Falcon,1 49747U 21115Z   25285.25688018  .00001335  00000+0  10192-3 0  9998,2 49747  53.2155  95.4619 0001307  87.7369 272.3773 15.08846220213125,15.0884622,0.0001307,LEO
49748,STARLINK-3248,2021,95.44,260.0,+,53.22,Active,1,LEO,USA,USA,Commercial,Communications,Falcon,1 49748U 21115AA  25284.96979497  .00001540  00000+0  11478-3 0  9996,2 49748  53.2163  96.3253 0001212  93.9312 266.1818 15.08853111213095,15.08853111,0.0001212,LEO
49749,STARLINK-3250,2021,95.44,260.0,+,53.22,Active,1,LEO,USA,USA,Commercial,Communications,Falcon,1 49749U 21115AB  25285.28731327 -.00000059  00000+0  14405-4 0  9990,2 49749  53.2158  95.5660 0001397  82.8878 277.2273 15.08841224213125,15.08841224,0.0001397,LEO
49750,STARLINK-3236,2021,95.44,260.0,+,53.22,Active,1,LEO,USA,USA,Commercial,Communications,Falcon,1 49750U 21115AC  25285.28348983 -.00072445  00000+0 -45374-2 0  9990,2 49750  53.2153  95.3477 0004065   0.9456 359.1544 15.09171637213131,15.09171637,0.0004065,LEO
49751,STARLINK-3229,2021,95.44,260.0,+,53.22,Active,1,LEO,USA,USA,Commercial,Communications,Falcon,1 49751U 21115AD  25285.26423886  .00000975  00000+0  79331-4 0  9994,2 49751  53.2152  95.3507 0001396  86.7046 273.4106 15.08839041213137,15.08839041,0.0001396,LEO
49752,STARLINK-3209,2021,95.44,260.0,+,53.21,Active,1,LEO,USA,USA,Commercial,Communications,Falcon,1 49752U 21115AE  25285.23300510  .00001081  00000+0  86017-4 0  9998,2 49752  53.2151  85.5780 0001341  84.1574 275.9571 15.08841415213264,15.08841415,0.0001341,LEO
49753,STARLINK-3200,2021,95.44,260.0,+,53.22,Active,1,LEO,USA,USA,Commercial,Communications,Falcon,1 49753U 21115AF  25285.27896537 -.00000034  00000+0  15975-4 0  9995,2 49753  53.2166  95.3625 0001435  78.8921 281.2233 15.08840736213134,15.08840736,0.0001435,LEO
49754,STARLINK-3193,2021,95.44,260.0,+,53.22,Active,1,LEO,USA,USA,Commercial,Communications,Falcon,1 49754U 21115AG  25285.23573695  .00000592  00000+0  55294-4 0  9995,2 49754  53.2120  85.6612 0001932  77.1941 282.9267 15.08841597213264,15.08841597,0.0001932,LEO
