[{"OBJECT_NAME":"STARLINK-3155","OBJECT_ID":"2021-115R","EPOCH":"2025-10-12T06:45:42.025824","MEAN_MOTION":15.08841514,"ECCENTRICITY":0.00012333,"INCLINATION":53.2154,"RA_OF_ASC_NODE":105.3484,"ARG_OF_PERICENTER":87.7326,"MEAN_ANOMALY":272.3807,"EPHEMERIS_TYPE":0,"CLASSIFICATION_TYPE":"U","NORAD_CAT_ID":49739,"ELEMENT_SET_NO":999,"REV_AT_EPOCH":21298,"BSTAR":0.0001076797,"MEAN_MOTION_DOT":1.426e-5,"MEAN_MOTION_DDOT":0},{"OBJECT_NAME":"STARLINK-3226","OBJECT_ID":"2021-115S","EPOCH":"2025-10-12T04:14:42.841536","MEAN_MOTION":15.08832676,"ECCENTRICITY":0.0001444,"INCLINATION":53.2163,"RA_OF_ASC_NODE":95.7917,"ARG_OF_PERICENTER":85.56,"MEAN_ANOMALY":274.5557,"EPHEMERIS_TYPE":0,"CLASSIFICATION_TYPE":"U","NORAD_CAT_ID":49740,"ELEMENT_SET_NO":999,"REV_AT_EPOCH":21311,"BSTAR":1.68046e-7,"MEAN_MOTION_DOT":-2.85e-6,"MEAN_MOTION_DDOT":0},{"OBJECT_NAME":"STARLINK-3244","OBJECT_ID":"2021-115T","EPOCH":"2025-10-12T04:09:25.210944","MEAN_MOTION":15.08830374,"ECCENTRICITY":0.00016974,"INCLINATION":53.2153,"RA_OF_ASC_NODE":95.8466,"ARG_OF_PERICENTER":75.5091,"MEAN_ANOMALY":284.6089,"EPHEMERIS_TYPE":0,"CLASSIFICATION_TYPE":"U","NORAD_CAT_ID":49741,"ELEMENT_SET_NO":999,"REV_AT_EPOCH":21311,"BSTAR":-2.560979e-5,"MEAN_MOTION_DOT":-6.96e-6,"MEAN_MOTION_DDOT":0},{"OBJECT_NAME":"STARLINK-3202","OBJECT_ID":"2021-115U","EPOCH":"2025-10-12T06:04:37.204896","MEAN_MOTION":15.0883886,"ECCENTRICITY":0.000131,"INCLINATION":53.2159,"RA_OF_ASC_NODE":95.4778,"ARG_OF_PERICENTER":86.1699,"MEAN_ANOMALY":273.9443,"EPHEMERIS_TYPE":0,"CLASSIFICATION_TYPE":"U","NORAD_CAT_ID":49742,"ELEMENT_SET_NO":999,"REV_AT_EPOCH":21312,"BSTAR":4.7750187e-5,"MEAN_MOTION_DOT":4.72e-6,"MEAN_MOTION_DDOT":0},{"OBJECT_NAME":"STARLINK-3239","OBJECT_ID":"2021-115V","EPOCH":"2025-10-12T04:04:03.663840","MEAN_MOTION":15.08861006,"ECCENTRICITY":0.000136,"INCLINATION":53.2158,"RA_OF_ASC_NODE":95.7863,"ARG_OF_PERICENTER":89.233,"MEAN_ANOMALY":270.8818,"EPHEMERIS_TYPE":0,"CLASSIFICATION_TYPE":"U","NORAD_CAT_ID":49743,"ELEMENT_SET_NO":999,"REV_AT_EPOCH":21311,"BSTAR":0.00021346625,"MEAN_MOTION_DOT":3.113e-5,"MEAN_MOTION_DDOT":0},{"OBJECT_NAME":"STARLINK-3231","OBJECT_ID":"2021-115W","EPOCH":"2025-10-12T06:00:40.818816","MEAN_MOTION":15.08839704,"ECCENTRICITY":0.0001432,"INCLINATION":53.2152,"RA_OF_ASC_NODE":95.3843,"ARG_OF_PERICENTER":93.4804,"MEAN_ANOMALY":266.6352,"EPHEMERIS_TYPE":0,"CLASSIFICATION_TYPE":"U","NORAD_CAT_ID":49744,"ELEMENT_SET_NO":999,"REV_AT_EPOCH":21312,"BSTAR":5.784931e-5,"MEAN_MOTION_DOT":6.33e-6,"MEAN_MOTION_DDOT":0},{"OBJECT_NAME":"STARLINK-3241","OBJECT_ID":"2021-115X","EPOCH":"2025-10-12T05:55:25.071744","MEAN_MOTION":15.08849577,"ECCENTRICITY":0.00013083,"INCLINATION":53.2151,"RA_OF_ASC_NODE":95.4774,"ARG_OF_PERICENTER":95.5398,"MEAN_ANOMALY":264.5744,"EPHEMERIS_TYPE":0,"CLASSIFICATION_TYPE":"U","NORAD_CAT_ID":49745,"ELEMENT_SET_NO":999,"REV_AT_EPOCH":21312,"BSTAR":0.00045177057,"MEAN_MOTION_DOT":6.911e-5,"MEAN_MOTION_DDOT":0},{"OBJECT_NAME":"STARLINK-3233","OBJECT_ID":"2021-115Y","EPOCH":"2025-10-12T04:50:25.948608","MEAN_MOTION":15.08843203,"ECCENTRICITY":0.00012154,"INCLINATION":53.2112,"RA_OF_ASC_NODE":95.7094,"ARG_OF_PERICENTER":93.2714,"MEAN_ANOMALY":266.8417,"EPHEMERIS_TYPE":0,"CLASSIFICATION_TYPE":"U","NORAD_CAT_ID":49746,"ELEMENT_SET_NO":999,"REV_AT_EPOCH":21311,"BSTAR":8.371789e-6,"MEAN_MOTION_DOT":-1.55e-6,"MEAN_MOTION_DDOT":0},{"OBJECT_NAME":"STARLINK-3247","OBJECT_ID":"2021-115Z","EPOCH":"2025-10-12T06:09:54.447552","MEAN_MOTION":15.0884622,"ECCENTRICITY":0.00013073,"INCLINATION":53.2155,"RA_OF_ASC_NODE":95.4619,"ARG_OF_PERICENTER":87.7369,"MEAN_ANOMALY":272.3773,"EPHEMERIS_TYPE":0,"CLASSIFICATION_TYPE":"U","NORAD_CAT_ID":49747,"ELEMENT_SET_NO":999,"REV_AT_EPOCH":21312,"BSTAR":0.00010191895,"MEAN_MOTION_DOT":1.335e-5,"MEAN_MOTION_DDOT":0},{"OBJECT_NAME":"STARLINK-3248","OBJECT_ID":"2021-115AA","EPOCH":"2025-10-11T23:16:30.285408","MEAN_MOTION":15.08853111,"ECCENTRICITY":0.00012122,"INCLINATION":53.2163,"RA_OF_ASC_NODE":96.3253,"ARG_OF_PERICENTER":93.9312,"MEAN_ANOMALY":266.1818,"EPHEMERIS_TYPE":0,"CLASSIFICATION_TYPE":"U","NORAD_CAT_ID":49748,"ELEMENT_SET_NO":999,"REV_AT_EPOCH":21309,"BSTAR":0.00011477711,"MEAN_MOTION_DOT":1.54e-5,"MEAN_MOTION_DDOT":0},{"OBJECT_NAME":"STARLINK-3250","OBJECT_ID":"2021-115AB","EPOCH":"2025-10-12T06:53:43.866528","MEAN_MOTION":15.08841224,"ECCENTRICITY":0.00013975,"INCLINATION":53.2158,"RA_OF_ASC_NODE":95.566,"ARG_OF_PERICENTER":82.8878,"MEAN_ANOMALY":277.2273,"EPHEMERIS_TYPE":0,"CLASSIFICATION_TYPE":"U","NORAD_CAT_ID":49749,"ELEMENT_SET_NO":999,"REV_AT_EPOCH":21312,"BSTAR":1.4405142e-5,"MEAN_MOTION_DOT":-5.9e-7,"MEAN_MOTION_DDOT":0},{"OBJECT_NAME":"STARLINK-3236","OBJECT_ID":"2021-115AC","EPOCH":"2025-10-12T06:48:13.521312","MEAN_MOTION":15.09171637,"ECCENTRICITY":0.00040653,"INCLINATION":53.2153,"RA_OF_ASC_NODE":95.3477,"ARG_OF_PERICENTER":0.9456,"MEAN_ANOMALY":359.1544,"EPHEMERIS_TYPE":0,"CLASSIFICATION_TYPE":"U","NORAD_CAT_ID":49750,"ELEMENT_SET_NO":999,"REV_AT_EPOCH":21313,"BSTAR":-0.0045373942,"MEAN_MOTION_DOT":-0.00072445,"MEAN_MOTION_DDOT":0},{"OBJECT_NAME":"STARLINK-3229","OBJECT_ID":"2021-115AD","EPOCH":"2025-10-12T06:20:30.237504","MEAN_MOTION":15.08839041,"ECCENTRICITY":0.00013962,"INCLINATION":53.2152,"RA_OF_ASC_NODE":95.3507,"ARG_OF_PERICENTER":86.7046,"MEAN_ANOMALY":273.4106,"EPHEMERIS_TYPE":0,"CLASSIFICATION_TYPE":"U","NORAD_CAT_ID":49751,"ELEMENT_SET_NO":999,"REV_AT_EPOCH":21313,"BSTAR":7.93313e-5,"MEAN_MOTION_DOT":9.75e-6,"MEAN_MOTION_DDOT":0},{"OBJECT_NAME":"STARLINK-3209","OBJECT_ID":"2021-115AE","EPOCH":"2025-10-12T05:35:31.640640","MEAN_MOTION":15.08841415,"ECCENTRICITY":0.0001341,"INCLINATION":53.2151,"RA_OF_ASC_NODE":85.578,"ARG_OF_PERICENTER":84.1574,"MEAN_ANOMALY":275.9571,"EPHEMERIS_TYPE":0,"CLASSIFICATION_TYPE":"U","NORAD_CAT_ID":49752,"ELEMENT_SET_NO":999,"REV_AT_EPOCH":21326,"BSTAR":8.6017119e-5,"MEAN_MOTION_DOT":1.081e-5,"MEAN_MOTION_DDOT":0},{"OBJECT_NAME":"STARLINK-3200","OBJECT_ID":"2021-115AF","EPOCH":"2025-10-12T06:41:42.607968","MEAN_MOTION":15.08840736,"ECCENTRICITY":0.00014352,"INCLINATION":53.2166,"RA_OF_ASC_NODE":95.3625,"ARG_OF_PERICENTER":78.8921,"MEAN_ANOMALY":281.2233,"EPHEMERIS_TYPE":0,"CLASSIFICATION_TYPE":"U","NORAD_CAT_ID":49753,"ELEMENT_SET_NO":999,"REV_AT_EPOCH":21313,"BSTAR":1.5974608e-5,"MEAN_MOTION_DOT":-3.4e-7,"MEAN_MOTION_DDOT":0},{"OBJECT_NAME":"STARLINK-3193","OBJECT_ID":"2021-115AG","EPOCH":"2025-10-12T05:39:27.672480","MEAN_MOTION":15.08841597,"ECCENTRICITY":0.00019329,"INCLINATION":53.212,"RA_OF_ASC_NODE":85.6612,"ARG_OF_PERICENTER":77.1941,"MEAN_ANOMALY":282.9267,"EPHEMERIS_TYPE":0,"CLASSIFICATION_TYPE":"U","NORAD_CAT_ID":49754,"ELEMENT_SET_NO":999,"REV_AT_EPOCH":21326,"BSTAR":5.5293908e-5,"MEAN_MOTION_DOT":5.92e-6,"MEAN_MOTION_DDOT":0}]
